{
  "type": "FeatureCollection",
  "features": [
    {
      "type": "Feature",
      "properties": {
        "norad_id": 35902,
        "name": "COSMOS 2251 DEB",
        "group": "cosmos-2251-debris",
        "lat": 58.25874184966686,
        "lon": -91.33009728814392,
        "alt_km": 765.7124610478204,
        "timestamp": "2025-12-09T04:51:47.888420+00:00",
        "meta_object_name": "COSMOS 2251 DEB",
        "meta_object_id": "1993-036AUR",
        "meta_epoch": "2025-12-07T23:58:19.658496",
        "meta_mean_motion": 14.26862668,
        "meta_eccentricity": 0.01019224,
        "meta_inclination": 73.9832,
        "meta_ra_of_asc_node": 243.186,
        "meta_arg_of_pericenter": 358.8404,
        "meta_mean_anomaly": 1.2491,
        "meta_ephemeris_type": 0,
        "meta_classification_type": "U",
        "meta_norad_cat_id": 35902,
        "meta_element_set_no": 999,
        "meta_rev_at_epoch": 61062,
        "meta_bstar": 0.0016367935,
        "meta_mean_motion_dot": 4.172e-05,
        "meta_mean_motion_ddot": 0,
        "tle_line1": "1 35902U 93036AUR 25341.99883864  .00004172  00000+0  16368-2 0  9999",
        "tle_line2": "2 35902  73.9832 243.1860 0101922 358.8404   1.2491 14.26862668610625"
      },
      "geometry": {
        "type": "Point",
        "coordinates": [
          -91.33009728814392,
          58.25874184966686
        ]
      }
    },
    {
      "type": "Feature",
      "properties": {
        "norad_id": 35905,
        "name": "COSMOS 2251 DEB",
        "group": "cosmos-2251-debris",
        "lat": 3.6684114199130478,
        "lon": 36.942137848064576,
        "alt_km": 606.0763952741563,
        "timestamp": "2025-12-09T04:51:47.888430+00:00",
        "meta_object_name": "COSMOS 2251 DEB",
        "meta_object_id": "1993-036AUU",
        "meta_epoch": "2025-12-07T08:49:24.431232",
        "meta_mean_motion": 14.98911662,
        "meta_eccentricity": 0.00909894,
        "meta_inclination": 74.0317,
        "meta_ra_of_asc_node": 221.7171,
        "meta_arg_of_pericenter": 303.0017,
        "meta_mean_anomaly": 56.2448,
        "meta_ephemeris_type": 0,
        "meta_classification_type": "U",
        "meta_norad_cat_id": 35905,
        "meta_element_set_no": 999,
        "meta_rev_at_epoch": 88502,
        "meta_bstar": 0.00087159571,
        "meta_mean_motion_dot": 0.00011465,
        "meta_mean_motion_ddot": 0,
        "tle_line1": "1 35905U 93036AUU 25341.36764388  .00011465  00000+0  87160-3 0  9994",
        "tle_line2": "2 35905  74.0317 221.7171 0090989 303.0017  56.2448 14.98911662885025"
      },
      "geometry": {
        "type": "Point",
        "coordinates": [
          36.942137848064576,
          3.6684114199130478
        ]
      }
    },
    {
      "type": "Feature",
      "properties": {
        "norad_id": 35959,
        "name": "COSMOS 2251 DEB",
        "group": "cosmos-2251-debris",
        "lat": 50.85998763316956,
        "lon": -20.861548242446226,
        "alt_km": 758.0353121706903,
        "timestamp": "2025-12-09T04:51:47.888453+00:00",
        "meta_object_name": "COSMOS 2251 DEB",
        "meta_object_id": "1993-036AUZ",
        "meta_epoch": "2025-12-08T08:31:28.444512",
        "meta_mean_motion": 14.34131307,
        "meta_eccentricity": 0.0021388,
        "meta_inclination": 74.0321,
        "meta_ra_of_asc_node": 320.0906,
        "meta_arg_of_pericenter": 41.8973,
        "meta_mean_anomaly": 318.381,
        "meta_ephemeris_type": 0,
        "meta_classification_type": "U",
        "meta_norad_cat_id": 35959,
        "meta_element_set_no": 999,
        "meta_rev_at_epoch": 84865,
        "meta_bstar": 0.00023984199,
        "meta_mean_motion_dot": 6.47e-06,
        "meta_mean_motion_ddot": 0,
        "tle_line1": "1 35959U 93036AUZ 25342.35519033  .00000647  00000+0  23984-3 0  9992",
        "tle_line2": "2 35959  74.0321 320.0906 0021388  41.8973 318.3810 14.34131307848656"
      },
      "geometry": {
        "type": "Point",
        "coordinates": [
          -20.861548242446226,
          50.85998763316956
        ]
      }
    },
    {
      "type": "Feature",
      "properties": {
        "norad_id": 35961,
        "name": "COSMOS 2251 DEB",
        "group": "cosmos-2251-debris",
        "lat": -10.128378268457565,
        "lon": -152.54810559566914,
        "alt_km": 1005.3296778536778,
        "timestamp": "2025-12-09T04:51:47.888465+00:00",
        "meta_object_name": "COSMOS 2251 DEB",
        "meta_object_id": "1993-036AVB",
        "meta_epoch": "2025-11-29T09:08:47.173056",
        "meta_mean_motion": 14.05319505,
        "meta_eccentricity": 0.01924432,
        "meta_inclination": 73.9254,
        "meta_ra_of_asc_node": 227.671,
        "meta_arg_of_pericenter": 163.9834,
        "meta_mean_anomaly": 196.7506,
        "meta_ephemeris_type": 0,
        "meta_classification_type": "U",
        "meta_norad_cat_id": 35961,
        "meta_element_set_no": 999,
        "meta_rev_at_epoch": 62494,
        "meta_bstar": 0.00062484461,
        "meta_mean_motion_dot": 1.171e-05,
        "meta_mean_motion_ddot": 0,
        "tle_line1": "1 35961U 93036AVB 25333.38110154  .00001171  00000+0  62484-3 0  9990",
        "tle_line2": "2 35961  73.9254 227.6710 0192443 163.9834 196.7506 14.05319505624940"
      },
      "geometry": {
        "type": "Point",
        "coordinates": [
          -152.54810559566914,
          -10.128378268457565
        ]
      }
    },
    {
      "type": "Feature",
      "properties": {
        "norad_id": 35979,
        "name": "COSMOS 2251 DEB",
        "group": "cosmos-2251-debris",
        "lat": 70.87267866659025,
        "lon": -58.92688788652914,
        "alt_km": 619.199637258942,
        "timestamp": "2025-12-09T04:51:47.888475+00:00",
        "meta_object_name": "COSMOS 2251 DEB",
        "meta_object_id": "1993-036AVV",
        "meta_epoch": "2025-12-07T00:28:15.848832",
        "meta_mean_motion": 14.74528809,
        "meta_eccentricity": 0.00587537,
        "meta_inclination": 74.0106,
        "meta_ra_of_asc_node": 249.5726,
        "meta_arg_of_pericenter": 23.061,
        "meta_mean_anomaly": 352.2989,
        "meta_ephemeris_type": 0,
        "meta_classification_type": "U",
        "meta_norad_cat_id": 35979,
        "meta_element_set_no": 999,
        "meta_rev_at_epoch": 88549,
        "meta_bstar": 0.0016160682,
        "meta_mean_motion_dot": 0.00011041,
        "meta_mean_motion_ddot": 0,
        "tle_line1": "1 35979U 93036AVV 25341.01962788  .00011041  00000+0  16161-2 0  9993",
        "tle_line2": "2 35979  74.0106 249.5726 0058753  23.0610 352.2989 14.74528809885498"
      },
      "geometry": {
        "type": "Point",
        "coordinates": [
          -58.92688788652914,
          70.87267866659025
        ]
      }
    },
    {
      "type": "Feature",
      "properties": {
        "norad_id": 35980,
        "name": "COSMOS 2251 DEB",
        "group": "cosmos-2251-debris",
        "lat": 27.252592999792245,
        "lon": -59.07123961774789,
        "alt_km": 708.6843101953618,
        "timestamp": "2025-12-09T04:51:47.888485+00:00",
        "meta_object_name": "COSMOS 2251 DEB",
        "meta_object_id": "1993-036AVW",
        "meta_epoch": "2025-12-02T19:08:08.015136",
        "meta_mean_motion": 14.59062146,
        "meta_eccentricity": 0.00537712,
        "meta_inclination": 73.91,
        "meta_ra_of_asc_node": 141.7735,
        "meta_arg_of_pericenter": 277.5645,
        "meta_mean_anomaly": 81.9413,
        "meta_ephemeris_type": 0,
        "meta_classification_type": "U",
        "meta_norad_cat_id": 35980,
        "meta_element_set_no": 999,
        "meta_rev_at_epoch": 61341,
        "meta_bstar": 0.002036555,
        "meta_mean_motion_dot": 9.752e-05,
        "meta_mean_motion_ddot": 0,
        "tle_line1": "1 35980U 93036AVW 25336.79731499  .00009752  00000+0  20366-2 0  9995",
        "tle_line2": "2 35980  73.9100 141.7735 0053771 277.5645  81.9413 14.59062146613413"
      },
      "geometry": {
        "type": "Point",
        "coordinates": [
          -59.07123961774789,
          27.252592999792245
        ]
      }
    },
    {
      "type": "Feature",
      "properties": {
        "norad_id": 35982,
        "name": "COSMOS 2251 DEB",
        "group": "cosmos-2251-debris",
        "lat": 30.39813808491713,
        "lon": 3.3537662881993544,
        "alt_km": 642.9354920275573,
        "timestamp": "2025-12-09T04:51:47.888495+00:00",
        "meta_object_name": "COSMOS 2251 DEB",
        "meta_object_id": "1993-036AVY",
        "meta_epoch": "2025-12-08T10:39:50.053248",
        "meta_mean_motion": 14.62714143,
        "meta_eccentricity": 0.00640459,
        "meta_inclination": 74.0585,
        "meta_ra_of_asc_node": 355.1514,
        "meta_arg_of_pericenter": 62.7677,
        "meta_mean_anomaly": 297.9996,
        "meta_ephemeris_type": 0,
        "meta_classification_type": "U",
        "meta_norad_cat_id": 35982,
        "meta_element_set_no": 999,
        "meta_rev_at_epoch": 86103,
        "meta_bstar": 0.00083154209,
        "meta_mean_motion_dot": 4.334e-05,
        "meta_mean_motion_ddot": 0,
        "tle_line1": "1 35982U 93036AVY 25342.44432932  .00004334  00000+0  83154-3 0  9992",
        "tle_line2": "2 35982  74.0585 355.1514 0064045  62.7677 297.9996 14.62714143861038"
      },
      "geometry": {
        "type": "Point",
        "coordinates": [
          3.3537662881993544,
          30.39813808491713
        ]
      }
    }
  ]
}